start=new Date('2022-11-29T00:00:00.000Z').valueOf();
sats=[{"RA_OF_ASC_NODE":"30.7178","APOAPSIS":"564.283","ECCENTRICITY":"0.00018440","EPOCH":"2022-11-27T18:28:01.633440","SITE":"AFWTR","RCS_SIZE":"LARGE","PERIOD":"95.919","TIME_SYSTEM":"UTC","CENTER_NAME":"EARTH","MEAN_MOTION_DDOT":"0.0000000000000","GP_ID":"218994302","MEAN_MOTION":"15.01263003","ELEMENT_SET_NO":"999","DECAY_DATE":null,"OBJECT_NAME":"STARLINK-4351","COUNTRY_CODE":"US","NORAD_CAT_ID":"53193","TLE_LINE1":"1 53193U 22084E   22331.76946335  .00001269  00000-0  10337-3 0  9996","REV_AT_EPOCH":"2060","PERIAPSIS":"561.723","INCLINATION":"97.6535","BSTAR":"0.00010337000000","OBJECT_ID":"2022-084E","SEMIMAJOR_AXIS":"6941.138","LAUNCH_DATE":"2022-07-22","EPHEMERIS_TYPE":"0","OBJECT_TYPE":"PAYLOAD","TLE_LINE2":"2 53193  97.6535  30.7178 0001844  61.2568 298.8842 15.01263003 20609","REF_FRAME":"TEME","CLASSIFICATION_TYPE":"U","ARG_OF_PERICENTER":"61.2568","FILE":"3671921","MEAN_MOTION_DOT":"0.00001269","MEAN_ELEMENT_THEORY":"SGP4","MEAN_ANOMALY":"298.8842"},{"EPOCH":"2022-11-28T05:37:14.106720","SITE":"AFWTR","APOAPSIS":"564.342","RA_OF_ASC_NODE":"31.1707","ECCENTRICITY":"0.00018190","TIME_SYSTEM":"UTC","PERIOD":"95.921","RCS_SIZE":"LARGE","GP_ID":"219003191","MEAN_MOTION_DDOT":"0.0000000000000","CENTER_NAME":"EARTH","MEAN_MOTION":"15.01237982","ELEMENT_SET_NO":"999","DECAY_DATE":null,"OBJECT_NAME":"STARLINK-4382","COUNTRY_CODE":"US","REV_AT_EPOCH":"2003","PERIAPSIS":"561.817","INCLINATION":"97.6535","NORAD_CAT_ID":"53194","TLE_LINE1":"1 53194U 22084F   22332.23419105  .00003974  00000-0  31401-3 0  9990","SEMIMAJOR_AXIS":"6941.215","BSTAR":"0.00031401000000","OBJECT_ID":"2022-084F","OBJECT_TYPE":"PAYLOAD","LAUNCH_DATE":"2022-07-22","EPHEMERIS_TYPE":"0","REF_FRAME":"TEME","TLE_LINE2":"2 53194  97.6535  31.1707 0001819  61.7892 298.3516 15.01237982 20037","ARG_OF_PERICENTER":"61.7892","FILE":"3672339","CLASSIFICATION_TYPE":"U","MEAN_MOTION_DOT":"0.00003974","MEAN_ELEMENT_THEORY":"SGP4","MEAN_ANOMALY":"298.3516"},{"CENTER_NAME":"EARTH","GP_ID":"218997356","MEAN_MOTION_DDOT":"0.0000000000000","RCS_SIZE":"LARGE","PERIOD":"95.971","TIME_SYSTEM":"UTC","APOAPSIS":"566.604","RA_OF_ASC_NODE":"31.1534","ECCENTRICITY":"0.00015980","EPOCH":"2022-11-28T03:06:29.587104","SITE":"AFWTR","COUNTRY_CODE":"US","OBJECT_NAME":"STARLINK-4404","DECAY_DATE":null,"MEAN_MOTION":"15.00454968","ELEMENT_SET_NO":"999","REF_FRAME":"TEME","TLE_LINE2":"2 53195  97.6586  31.1534 0001598  26.3779 333.7526 15.00454968 20025","LAUNCH_DATE":"2022-07-22","EPHEMERIS_TYPE":"0","OBJECT_TYPE":"PAYLOAD","BSTAR":"0.00004813000000","OBJECT_ID":"2022-084G","SEMIMAJOR_AXIS":"6943.629","NORAD_CAT_ID":"53195","TLE_LINE1":"1 53195U 22084G   22332.12950911  .00000547  00000-0  48130-4 0  9995","PERIAPSIS":"564.385","REV_AT_EPOCH":"2002","INCLINATION":"97.6586","MEAN_MOTION_DOT":"0.00000547","MEAN_ELEMENT_THEORY":"SGP4","MEAN_ANOMALY":"333.7526","CLASSIFICATION_TYPE":"U","ARG_OF_PERICENTER":"26.3779","FILE":"3672050"},{"TLE_LINE2":"2 53196  97.6537  30.8319 0001856  74.3427 285.8002 15.01258790 20267","REF_FRAME":"TEME","OBJECT_TYPE":"PAYLOAD","LAUNCH_DATE":"2022-07-22","EPHEMERIS_TYPE":"0","SEMIMAJOR_AXIS":"6941.151","BSTAR":"-0.00007371800000","OBJECT_ID":"2022-084H","PERIAPSIS":"561.727","REV_AT_EPOCH":"2026","INCLINATION":"97.6537","NORAD_CAT_ID":"53196","TLE_LINE1":"1 53196U 22084H   22331.89746236 -.00001006  00000-0 -73718-4 0  9995","MEAN_MOTION_DOT":"-0.00001006","MEAN_ELEMENT_THEORY":"SGP4","MEAN_ANOMALY":"285.8002","ARG_OF_PERICENTER":"74.3427","FILE":"3671921","CLASSIFICATION_TYPE":"U","GP_ID":"218993773","MEAN_MOTION_DDOT":"0.0000000000000","CENTER_NAME":"EARTH","TIME_SYSTEM":"UTC","PERIOD":"95.920","RCS_SIZE":"LARGE","EPOCH":"2022-11-27T21:32:20.747904","SITE":"AFWTR","RA_OF_ASC_NODE":"30.8319","APOAPSIS":"564.304","ECCENTRICITY":"0.00018560","COUNTRY_CODE":"US","OBJECT_NAME":"STARLINK-4407","DECAY_DATE":null,"MEAN_MOTION":"15.01258790","ELEMENT_SET_NO":"999"},{"DECAY_DATE":null,"MEAN_MOTION":"15.01261585","ELEMENT_SET_NO":"999","COUNTRY_CODE":"US","OBJECT_NAME":"STARLINK-4403","TIME_SYSTEM":"UTC","PERIOD":"95.919","RCS_SIZE":"LARGE","EPOCH":"2022-11-27T21:23:59.415360","SITE":"AFWTR","APOAPSIS":"564.176","RA_OF_ASC_NODE":"30.8217","ECCENTRICITY":"0.00016840","MEAN_MOTION_DDOT":"0.0000000000000","GP_ID":"218997481","CENTER_NAME":"EARTH","MEAN_MOTION_DOT":"-0.00000658","MEAN_ELEMENT_THEORY":"SGP4","MEAN_ANOMALY":"264.5405","ARG_OF_PERICENTER":"95.6011","FILE":"3672050","CLASSIFICATION_TYPE":"U","SEMIMAJOR_AXIS":"6941.142","BSTAR":"-0.00004664100000","OBJECT_ID":"2022-084J","PERIAPSIS":"561.838","INCLINATION":"97.6546","REV_AT_EPOCH":"1998","NORAD_CAT_ID":"53197","TLE_LINE1":"1 53197U 22084J   22331.89165990 -.00000658  00000-0 -46641-4 0  9995","TLE_LINE2":"2 53197  97.6546  30.8217 0001684  95.6011 264.5405 15.01261585 19983","REF_FRAME":"TEME","OBJECT_TYPE":"PAYLOAD","LAUNCH_DATE":"2022-07-22","EPHEMERIS_TYPE":"0"},{"REF_FRAME":"TEME","TLE_LINE2":"2 53198  97.6555  30.8274 0001714  98.6889 261.4529 15.01256772 19982","OBJECT_TYPE":"PAYLOAD","LAUNCH_DATE":"2022-07-22","EPHEMERIS_TYPE":"0","SEMIMAJOR_AXIS":"6941.157","BSTAR":"-0.00005592600000","OBJECT_ID":"2022-084K","PERIAPSIS":"561.832","REV_AT_EPOCH":"1998","INCLINATION":"97.6555","NORAD_CAT_ID":"53198","TLE_LINE1":"1 53198U 22084K   22331.89536657 -.00000777  00000-0 -55926-4 0  9996","MEAN_MOTION_DOT":"-0.00000777","MEAN_ELEMENT_THEORY":"SGP4","MEAN_ANOMALY":"261.4529","ARG_OF_PERICENTER":"98.6889","FILE":"3672050","CLASSIFICATION_TYPE":"U","MEAN_MOTION_DDOT":"0.0000000000000","GP_ID":"218997477","CENTER_NAME":"EARTH","PERIOD":"95.920","TIME_SYSTEM":"UTC","RCS_SIZE":"LARGE","EPOCH":"2022-11-27T21:29:19.671648","SITE":"AFWTR","APOAPSIS":"564.212","RA_OF_ASC_NODE":"30.8274","ECCENTRICITY":"0.00017140","COUNTRY_CODE":"US","OBJECT_NAME":"STARLINK-4385","DECAY_DATE":null,"MEAN_MOTION":"15.01256772","ELEMENT_SET_NO":"999"},{"CLASSIFICATION_TYPE":"U","FILE":"3671921","ARG_OF_PERICENTER":"112.5739","MEAN_ANOMALY":"247.5677","MEAN_ELEMENT_THEORY":"SGP4","MEAN_MOTION_DOT":"-0.00000343","TLE_LINE1":"1 53199U 22084L   22331.88981006 -.00000343  00000-0 -22116-4 0  9992","NORAD_CAT_ID":"53199","PERIAPSIS":"561.738","REV_AT_EPOCH":"1960","INCLINATION":"97.6551","OBJECT_ID":"2022-084L","BSTAR":"-0.00002211600000","SEMIMAJOR_AXIS":"6941.127","EPHEMERIS_TYPE":"0","LAUNCH_DATE":"2022-07-22","OBJECT_TYPE":"PAYLOAD","REF_FRAME":"TEME","TLE_LINE2":"2 53199  97.6551  30.8211 0001806 112.5739 247.5677 15.01266450 19604","ELEMENT_SET_NO":"999","MEAN_MOTION":"15.01266450","DECAY_DATE":null,"OBJECT_NAME":"STARLINK-4395","COUNTRY_CODE":"US","ECCENTRICITY":"0.00018060","APOAPSIS":"564.246","RA_OF_ASC_NODE":"30.8211","SITE":"AFWTR","EPOCH":"2022-11-27T21:21:19.589184","RCS_SIZE":"LARGE","PERIOD":"95.919","TIME_SYSTEM":"UTC","CENTER_NAME":"EARTH","MEAN_MOTION_DDOT":"0.0000000000000","GP_ID":"218993242"},{"MEAN_MOTION_DOT":"0.00000068","MEAN_ELEMENT_THEORY":"SGP4","MEAN_ANOMALY":"278.9018","CLASSIFICATION_TYPE":"U","ARG_OF_PERICENTER":"81.2376","FILE":"3672341","REF_FRAME":"TEME","TLE_LINE2":"2 53200  97.6558  31.3482 0001506  81.2376 278.9018 15.01273229 20067","LAUNCH_DATE":"2022-07-22","EPHEMERIS_TYPE":"0","OBJECT_TYPE":"PAYLOAD","BSTAR":"0.00000985740000","OBJECT_ID":"2022-084M","SEMIMAJOR_AXIS":"6941.106","NORAD_CAT_ID":"53200","TLE_LINE1":"1 53200U 22084M   22332.42672415  .00000068  00000-0  98574-5 0  9991","INCLINATION":"97.6558","PERIAPSIS":"561.926","REV_AT_EPOCH":"2006","COUNTRY_CODE":"US","OBJECT_NAME":"STARLINK-4417","DECAY_DATE":null,"MEAN_MOTION":"15.01273229","ELEMENT_SET_NO":"999","CENTER_NAME":"EARTH","GP_ID":"219003211","MEAN_MOTION_DDOT":"0.0000000000000","RCS_SIZE":"LARGE","PERIOD":"95.919","TIME_SYSTEM":"UTC","RA_OF_ASC_NODE":"31.3482","APOAPSIS":"564.016","ECCENTRICITY":"0.00015060","EPOCH":"2022-11-28T10:14:28.966560","SITE":"AFWTR"},{"FILE":"3672341","ARG_OF_PERICENTER":"112.8355","CLASSIFICATION_TYPE":"U","MEAN_ANOMALY":"247.3046","MEAN_ELEMENT_THEORY":"SGP4","MEAN_MOTION_DOT":"0.00002560","INCLINATION":"97.6558","PERIAPSIS":"561.819","REV_AT_EPOCH":"2006","TLE_LINE1":"1 53201U 22084N   22332.41933267  .00002560  00000-0  20379-3 0  9991","NORAD_CAT_ID":"53201","SEMIMAJOR_AXIS":"6941.115","OBJECT_ID":"2022-084N","BSTAR":"0.00020379000000","OBJECT_TYPE":"PAYLOAD","EPHEMERIS_TYPE":"0","LAUNCH_DATE":"2022-07-22","REF_FRAME":"TEME","TLE_LINE2":"2 53201  97.6558  31.3418 0001672 112.8355 247.3046 15.01270419 20068","ELEMENT_SET_NO":"999","MEAN_MOTION":"15.01270419","DECAY_DATE":null,"OBJECT_NAME":"STARLINK-4405","COUNTRY_CODE":"US","SITE":"AFWTR","EPOCH":"2022-11-28T10:03:50.342688","ECCENTRICITY":"0.00016720","RA_OF_ASC_NODE":"31.3418","APOAPSIS":"564.140","PERIOD":"95.919","TIME_SYSTEM":"UTC","RCS_SIZE":"LARGE","MEAN_MOTION_DDOT":"0.0000000000000","GP_ID":"219003217","CENTER_NAME":"EARTH"},{"OBJECT_NAME":"STARLINK-4411","COUNTRY_CODE":"US","MEAN_MOTION":"15.00448436","ELEMENT_SET_NO":"999","DECAY_DATE":null,"CENTER_NAME":"EARTH","GP_ID":"219009287","MEAN_MOTION_DDOT":"0.0000000000000","RA_OF_ASC_NODE":"31.8629","APOAPSIS":"565.712","ECCENTRICITY":"0.00002850","EPOCH":"2022-11-28T14:45:00.821376","SITE":"AFWTR","RCS_SIZE":"LARGE","PERIOD":"95.971","TIME_SYSTEM":"UTC","CLASSIFICATION_TYPE":"U","ARG_OF_PERICENTER":"243.1612","FILE":"3672642","MEAN_MOTION_DOT":"-0.00001226","MEAN_ANOMALY":"116.9583","MEAN_ELEMENT_THEORY":"SGP4","LAUNCH_DATE":"2022-07-22","EPHEMERIS_TYPE":"0","OBJECT_TYPE":"PAYLOAD","REF_FRAME":"TEME","TLE_LINE2":"2 53202  97.6549  31.8629 0000285 243.1612 116.9583 15.00448436 20119","NORAD_CAT_ID":"53202","TLE_LINE1":"1 53202U 22084P   22332.61459284 -.00001226  00000-0 -92886-4 0  9999","PERIAPSIS":"565.317","INCLINATION":"97.6549","REV_AT_EPOCH":"2011","BSTAR":"-0.00009288600000","OBJECT_ID":"2022-084P","SEMIMAJOR_AXIS":"6943.650"}];
